[{"OBJECT_NAME":"ONEWEB-0706","OBJECT_ID":"2024-188T","EPOCH":"2025-10-28T11:12:46.237248","MEAN_MOTION":13.10358121,"ECCENTRICITY":0.00024663,"INCLINATION":87.8771,"RA_OF_ASC_NODE":82.4628,"ARG_OF_PERICENTER":89.1353,"MEAN_ANOMALY":271.0057,"EPHEMERIS_TYPE":0,"CLASSIFICATION_TYPE":"U","NORAD_CAT_ID":61611,"ELEMENT_SET_NO":999,"REV_AT_EPOCH":5303,"BSTAR":0.0090109758,"MEAN_MOTION_DOT":3.159e-5,"MEAN_MOTION_DDOT":0},{"OBJECT_NAME":"ONEWEB-0707","OBJECT_ID":"2024-188U","EPOCH":"2025-10-28T09:32:22.173504","MEAN_MOTION":13.1036958,"ECCENTRICITY":0.00021208,"INCLINATION":87.8783,"RA_OF_ASC_NODE":82.4481,"ARG_OF_PERICENTER":86.7373,"MEAN_ANOMALY":273.3997,"EPHEMERIS_TYPE":0,"CLASSIFICATION_TYPE":"U","NORAD_CAT_ID":61612,"ELEMENT_SET_NO":999,"REV_AT_EPOCH":5296,"BSTAR":0.0012371242,"MEAN_MOTION_DOT":4.45e-6,"MEAN_MOTION_DDOT":0},{"OBJECT_NAME":"ONEWEB-0708","OBJECT_ID":"2024-188V","EPOCH":"2025-10-28T09:58:38.740224","MEAN_MOTION":13.10376664,"ECCENTRICITY":0.00014678,"INCLINATION":87.8773,"RA_OF_ASC_NODE":82.4855,"ARG_OF_PERICENTER":75.9957,"MEAN_ANOMALY":284.1334,"EPHEMERIS_TYPE":0,"CLASSIFICATION_TYPE":"U","NORAD_CAT_ID":61613,"ELEMENT_SET_NO":999,"REV_AT_EPOCH":5294,"BSTAR":-0.0012625561,"MEAN_MOTION_DOT":-4.28e-6,"MEAN_MOTION_DDOT":0}]
