ONEWEB-0706             
1 61611U 24188T   25301.46720182  .00003159  00000+0  90110-2 0  9999
2 61611  87.8771  82.4628 0002466  89.1353 271.0057 13.10358121 53030
ONEWEB-0707             
1 61612U 24188U   25301.39747886  .00000445  00000+0  12371-2 0  9990
2 61612  87.8783  82.4481 0002120  86.7373 273.3997 13.10369580 52963
ONEWEB-0708             
1 61613U 24188V   25301.41572616 -.00000428  00000+0 -12626-2 0  9997
2 61613  87.8773  82.4855 0001467  75.9957 284.1334 13.10376664 52943
